*******************************************************************************
Ephemeris / WWW_USER Mon Jul 15 19:01:59 2024 Pasadena, USA      / Horizons    
*******************************************************************************
Target body name: (2018 RC)                       {source: JPL#21}
Center body name: Earth (399)                     {source: DE441}
Center-site name: Gemini South Obs., Cerro Pachon
*******************************************************************************
Start time      : A.D. 2019-Jan-09 23:58:00.0000 UT      
Stop  time      : A.D. 2019-Jan-10 09:42:00.0000 UT      
Step-size       : 1 minutes
*******************************************************************************
Target pole/equ : undefined
Target radii    : undefined                                                    
Center geodetic : 289.2634, -30.2406227, 2.71233  {E-lon(deg),Lat(deg),Alt(km)}
Center cylindric: 289.2634,5517.21435,-3194.81213 {E-lon(deg),Dxy(km),Dz(km)}
Center pole/equ : ITRF93                          {East-longitude positive}
Center radii    : 6378.137, 6378.137, 6356.752 km {Equator_a, b, pole_c}       
Target primary  : Sun
Vis. interferer : MOON (R_eq= 1737.400) km        {source: DE441}
Rel. light bend : Sun                             {source: DE441}
Rel. lght bnd GM: 1.3271E+11 km^3/s^2                                          
Small-body perts: Yes                             {source: SB441-N16}
Atmos refraction: NO (AIRLESS)
RA format       : HMS
Time format     : CAL 
Calendar mode   : Mixed Julian/Gregorian
RTS-only print  : NO       
EOP file        : eop.240715.p241008                                           
EOP coverage    : DATA-BASED 1962-JAN-20 TO 2024-JUL-15. PREDICTS-> 2024-OCT-07
Units conversion: 1 au= 149597870.700 km, c= 299792.458 km/s, 1 day= 86400.0 s 
Table cut-offs 1: Elevation (-90.0deg=NO ),Airmass (>38.000=NO), Daylight (YES)
Table cut-offs 2: Solar elongation (  0.0,180.0=NO ),Local Hour Angle( 0.0=NO )
Table cut-offs 3: RA/DEC angular rate (     0.0=NO )                           
*******************************************************************************
Initial IAU76/J2000 heliocentric ecliptic osculating elements (au, days, deg.):
  EPOCH=  2458369.5 ! 2018-Sep-08.00 (TDB)         Residual RMS= .84866        
   EC= .2426621660028976   QR= .647471518312811    TP= 2458473.8617576878      
   OM= 346.8893436915528   W=  145.8737085184167   IN= 1.612045057594462       
  Equivalent ICRF heliocentric cartesian coordinates (au, au/d):
   X= 9.781363708094483E-01  Y=-2.377942828764822E-01  Z=-1.040448782093900E-01
  VX= 1.501011538102481E-03 VY= 1.393070215815854E-02 VZ= 6.509326736836346E-03
Asteroid physical parameters (km, seconds, rotational period in hours):        
   GM= n.a.                RAD= n.a.               ROTPER= .16548              
   H= 24.93                G= .150                 B-V= n.a.                   
                           ALBEDO= n.a.            STYP= n.a.                  
*******************************************************************************
 Date__(UT)__HR:MN     R.A._________(ICRF)_________DEC
******************************************************
$$SOE
 2019-Jan-10 02:01  m  16 05 55.655638 -20 51 22.14012
 2019-Jan-10 02:02  m  16 05 55.826541 -20 51 22.71412
 2019-Jan-10 02:03  m  16 05 55.997442 -20 51 23.28816
 2019-Jan-10 02:04  m  16 05 56.168343 -20 51 23.86226
 2019-Jan-10 02:05  m  16 05 56.339242 -20 51 24.43641
 2019-Jan-10 02:06  m  16 05 56.510140 -20 51 25.01061
 2019-Jan-10 02:07  m  16 05 56.681037 -20 51 25.58486
 2019-Jan-10 02:08  m  16 05 56.851932 -20 51 26.15916
 2019-Jan-10 02:09  m  16 05 57.022826 -20 51 26.73350
 2019-Jan-10 02:10  m  16 05 57.193718 -20 51 27.30790
 2019-Jan-10 02:11  m  16 05 57.364609 -20 51 27.88235
 2019-Jan-10 02:12  m  16 05 57.535498 -20 51 28.45685
 2019-Jan-10 02:13  m  16 05 57.706386 -20 51 29.03139
 2019-Jan-10 02:14  m  16 05 57.877272 -20 51 29.60599
 2019-Jan-10 02:15  m  16 05 58.048156 -20 51 30.18063
 2019-Jan-10 02:16  m  16 05 58.219039 -20 51 30.75533
 2019-Jan-10 02:17  m  16 05 58.389919 -20 51 31.33007
 2019-Jan-10 02:18  m  16 05 58.560798 -20 51 31.90487
 2019-Jan-10 02:19  m  16 05 58.731675 -20 51 32.47971
 2019-Jan-10 02:20  m  16 05 58.902550 -20 51 33.05460
 2019-Jan-10 02:21  m  16 05 59.073423 -20 51 33.62955
 2019-Jan-10 02:22  m  16 05 59.244293 -20 51 34.20454
 2019-Jan-10 02:23  m  16 05 59.415162 -20 51 34.77958
 2019-Jan-10 02:24  m  16 05 59.586028 -20 51 35.35466
 2019-Jan-10 02:25  m  16 05 59.756892 -20 51 35.92980
 2019-Jan-10 02:26  m  16 05 59.927754 -20 51 36.50499
 2019-Jan-10 02:27  m  16 06 00.098613 -20 51 37.08023
 2019-Jan-10 02:28  m  16 06 00.269470 -20 51 37.65551
 2019-Jan-10 02:29  m  16 06 00.440325 -20 51 38.23084
 2019-Jan-10 02:30  m  16 06 00.611176 -20 51 38.80622
 2019-Jan-10 02:31     16 06 00.782026 -20 51 39.38165
 2019-Jan-10 02:32     16 06 00.952873 -20 51 39.95713
 2019-Jan-10 02:33     16 06 01.123717 -20 51 40.53266
 2019-Jan-10 02:34     16 06 01.294558 -20 51 41.10824
 2019-Jan-10 02:35     16 06 01.465396 -20 51 41.68386
 2019-Jan-10 02:36     16 06 01.636232 -20 51 42.25953
 2019-Jan-10 02:37     16 06 01.807065 -20 51 42.83525
 2019-Jan-10 02:38     16 06 01.977895 -20 51 43.41102
 2019-Jan-10 02:39     16 06 02.148721 -20 51 43.98684
 2019-Jan-10 02:40     16 06 02.319545 -20 51 44.56270
 2019-Jan-10 02:41     16 06 02.490366 -20 51 45.13861
 2019-Jan-10 02:42     16 06 02.661183 -20 51 45.71457
 2019-Jan-10 02:43     16 06 02.831998 -20 51 46.29058
 2019-Jan-10 02:44     16 06 03.002809 -20 51 46.86663
 2019-Jan-10 02:45     16 06 03.173617 -20 51 47.44274
 2019-Jan-10 02:46     16 06 03.344421 -20 51 48.01889
 2019-Jan-10 02:47     16 06 03.515222 -20 51 48.59508
 2019-Jan-10 02:48     16 06 03.686020 -20 51 49.17133
 2019-Jan-10 02:49     16 06 03.856814 -20 51 49.74762
 2019-Jan-10 02:50     16 06 04.027604 -20 51 50.32396
 2019-Jan-10 02:51     16 06 04.198391 -20 51 50.90034
 2019-Jan-10 02:52     16 06 04.369174 -20 51 51.47678
 2019-Jan-10 02:53     16 06 04.539953 -20 51 52.05326
 2019-Jan-10 02:54     16 06 04.710729 -20 51 52.62978
 2019-Jan-10 02:55     16 06 04.881501 -20 51 53.20635
 2019-Jan-10 02:56     16 06 05.052269 -20 51 53.78297
 2019-Jan-10 02:57     16 06 05.223033 -20 51 54.35964
 2019-Jan-10 02:58     16 06 05.393793 -20 51 54.93635
 2019-Jan-10 02:59     16 06 05.564549 -20 51 55.51311
 2019-Jan-10 03:00     16 06 05.735301 -20 51 56.08991
 2019-Jan-10 03:01     16 06 05.906049 -20 51 56.66676
 2019-Jan-10 03:02     16 06 06.076793 -20 51 57.24366
 2019-Jan-10 03:03     16 06 06.247532 -20 51 57.82060
 2019-Jan-10 03:04     16 06 06.418267 -20 51 58.39759
 2019-Jan-10 03:05     16 06 06.588998 -20 51 58.97462
 2019-Jan-10 03:06     16 06 06.759725 -20 51 59.55170
 2019-Jan-10 03:07     16 06 06.930447 -20 52 00.12882
 2019-Jan-10 03:08     16 06 07.101164 -20 52 00.70599
 2019-Jan-10 03:09     16 06 07.271878 -20 52 01.28321
 2019-Jan-10 03:10     16 06 07.442586 -20 52 01.86047
 2019-Jan-10 03:11     16 06 07.613290 -20 52 02.43777
 2019-Jan-10 03:12     16 06 07.783989 -20 52 03.01512
 2019-Jan-10 03:13     16 06 07.954684 -20 52 03.59251
 2019-Jan-10 03:14     16 06 08.125373 -20 52 04.16995
 2019-Jan-10 03:15     16 06 08.296058 -20 52 04.74743
 2019-Jan-10 03:16     16 06 08.466738 -20 52 05.32496
 2019-Jan-10 03:17     16 06 08.637414 -20 52 05.90253
 2019-Jan-10 03:18     16 06 08.808084 -20 52 06.48015
 2019-Jan-10 03:19     16 06 08.978749 -20 52 07.05781
 2019-Jan-10 03:20     16 06 09.149409 -20 52 07.63551
 2019-Jan-10 03:21     16 06 09.320064 -20 52 08.21326
 2019-Jan-10 03:22     16 06 09.490714 -20 52 08.79105
 2019-Jan-10 03:23     16 06 09.661358 -20 52 09.36888
 2019-Jan-10 03:24     16 06 09.831998 -20 52 09.94676
 2019-Jan-10 03:25     16 06 10.002632 -20 52 10.52468
 2019-Jan-10 03:26     16 06 10.173261 -20 52 11.10264
 2019-Jan-10 03:27     16 06 10.343884 -20 52 11.68065
 2019-Jan-10 03:28     16 06 10.514502 -20 52 12.25870
 2019-Jan-10 03:29     16 06 10.685114 -20 52 12.83679
 2019-Jan-10 03:30     16 06 10.855721 -20 52 13.41493
 2019-Jan-10 03:31     16 06 11.026322 -20 52 13.99310
 2019-Jan-10 03:32     16 06 11.196918 -20 52 14.57132
 2019-Jan-10 03:33     16 06 11.367508 -20 52 15.14958
 2019-Jan-10 03:34     16 06 11.538092 -20 52 15.72789
 2019-Jan-10 03:35     16 06 11.708671 -20 52 16.30623
 2019-Jan-10 03:36     16 06 11.879243 -20 52 16.88462
 2019-Jan-10 03:37     16 06 12.049810 -20 52 17.46305
 2019-Jan-10 03:38     16 06 12.220371 -20 52 18.04152
 2019-Jan-10 03:39     16 06 12.390926 -20 52 18.62003
 2019-Jan-10 03:40     16 06 12.561475 -20 52 19.19859
 2019-Jan-10 03:41     16 06 12.732017 -20 52 19.77718
 2019-Jan-10 03:42     16 06 12.902554 -20 52 20.35582
 2019-Jan-10 03:43     16 06 13.073085 -20 52 20.93449
 2019-Jan-10 03:44     16 06 13.243609 -20 52 21.51321
 2019-Jan-10 03:45     16 06 13.414127 -20 52 22.09196
 2019-Jan-10 03:46     16 06 13.584639 -20 52 22.67076
 2019-Jan-10 03:47     16 06 13.755145 -20 52 23.24960
 2019-Jan-10 03:48     16 06 13.925644 -20 52 23.82848
 2019-Jan-10 03:49     16 06 14.096137 -20 52 24.40739
 2019-Jan-10 03:50     16 06 14.266623 -20 52 24.98635
 2019-Jan-10 03:51     16 06 14.437103 -20 52 25.56535
 2019-Jan-10 03:52     16 06 14.607576 -20 52 26.14438
 2019-Jan-10 03:53     16 06 14.778043 -20 52 26.72346
 2019-Jan-10 03:54     16 06 14.948503 -20 52 27.30257
 2019-Jan-10 03:55     16 06 15.118956 -20 52 27.88173
 2019-Jan-10 03:56     16 06 15.289403 -20 52 28.46092
 2019-Jan-10 03:57     16 06 15.459843 -20 52 29.04015
 2019-Jan-10 03:58     16 06 15.630276 -20 52 29.61942
 2019-Jan-10 03:59     16 06 15.800702 -20 52 30.19872
 2019-Jan-10 04:00     16 06 15.971121 -20 52 30.77807
 2019-Jan-10 04:01     16 06 16.141533 -20 52 31.35745
 2019-Jan-10 04:02     16 06 16.311939 -20 52 31.93688
 2019-Jan-10 04:03     16 06 16.482337 -20 52 32.51633
